OBJECT_NAME,OBJECT_ID,EPOCH,MEAN_MOTION,ECCENTRICITY,INCLINATION,RA_OF_ASC_NODE,ARG_OF_PERICENTER,MEAN_ANOMALY,EPHEMERIS_TYPE,CLASSIFICATION_TYPE,NORAD_CAT_ID,ELEMENT_SET_NO,REV_AT_EPOCH,BSTAR,MEAN_MOTION_DOT,MEAN_MOTION_DDOT
LEMUR-2-ROUNDTRIPPER,2025-009DG,2026-07-06T04:32:00.256704,15.04126128,.00045159,97.7222,269.8431,85.1378,275.0364,0,U,62711,999,8048,.69562887E-3,.959E-4,0
LEMUR-2-MYNAMEISJEFF,2025-009DH,2026-07-06T04:29:45.197952,15.04118145,.0003594,97.7273,270.2338,118.7243,241.4344,0,U,62712,999,8048,.69930425E-3,.9639E-4,0
LEMUR-2-LEIA-PHILIP,2025-052AN,2026-07-06T05:58:30.501696,14.97373069,.00047714,97.6815,78.8772,142.6736,217.4818,0,U,63246,999,7152,.20276551E-3,.2298E-4,0
LEMUR-2-LIA-MARTIN,2025-052AQ,2026-07-06T05:55:59.280096,14.97973662,.00051661,97.6860,79.3784,112.6456,247.5313,0,U,63248,999,7153,.49981347E-3,.5843E-4,0
LEMUR-2-DELOITTE-1,2025-052BB,2026-07-06T03:49:32.702592,14.97739734,.00022843,97.6882,79.6236,65.5332,294.6128,0,U,63259,999,7153,.34957662E-3,.4043E-4,0
LEMUR-2-EMERSONROSE,2025-052BD,2026-07-06T04:23:00.013920,14.99234298,.00027152,97.6867,80.2397,74.4328,285.7195,0,U,63261,999,7158,.41714769E-3,.5028E-4,0
LEMUR-2-MARACHE-FRAN,2025-052BE,2026-07-05T22:40:27.931008,15.00274249,.00044056,97.6872,80.3604,296.1908,63.8862,0,U,63262,999,7157,.4305268E-3,.5335E-4,0
LEMUR-2-THEFALCONER,2025-052BG,2026-07-06T06:07:47.222688,14.97528478,.00009623,97.6842,79.3170,29.1762,330.9514,0,U,63264,999,7154,.4215911E-3,.4861E-4,0
LEMUR-2-UNTITLED-SC,2025-061A,2026-07-05T22:20:15.709632,15.13606209,.00182184,97.5649,162.1578,194.9131,165.1565,0,U,63351,999,7042,.24018684E-3,.4262E-4,0
LEMUR-2-ESPERANZA,2025-061B,2026-07-05T21:45:41.048640,15.13711408,.00178328,97.5654,162.2317,194.0477,166.0260,0,U,63352,999,7042,.34450294E-3,.6161E-4,0
LEMUR-2-KREMPEL-BRO2,2025-061C,2026-07-05T22:16:45.329952,15.14137182,.00189812,97.5704,162.8106,186.7372,173.3607,0,U,63353,999,7044,.23215455E-3,.4181E-4,0
LEMUR-2-THERMORAPTOR,2025-061D,2026-07-06T04:10:07.449312,15.14220361,.00187793,97.5707,163.1337,184.6658,175.4402,0,U,63354,999,7048,.19988168E-3,.3598E-4,0
LEMUR-2-NEUROSPICY,2025-061E,2026-07-05T21:06:38.102688,15.14336803,.00164931,97.5634,162.4530,188.7768,171.3178,0,U,63355,999,7044,.27581484E-3,.5004E-4,0
LEMUR-2-TILLINFINITY,2025-061F,2026-07-06T04:07:29.774496,15.14921777,.00181369,97.5620,163.0472,175.9970,184.1410,0,U,63356,999,7051,.20384771E-3,.3744E-4,0
LEMUR-2-KREMPEL-BRO1,2025-061G,2026-07-05T21:12:17.362656,15.14727577,.00186999,97.5621,162.6713,178.6211,181.5075,0,U,63357,999,7046,.2690285E-3,.4938E-4,0
LEMUR-2-LANGER2SPACE,2025-061H,2026-07-05T23:30:59.459904,15.14422814,.00164745,97.5625,162.5736,186.4636,173.6386,0,U,63358,999,7046,.22185135E-3,.4021E-4,0
LEMUR-2-BALTO,2025-052BH,2026-07-05T22:18:18.539136,15.00303098,.00057728,97.6925,80.3241,3.4548,356.6714,0,U,63395,999,7157,.5474846E-3,.6808E-4,0
LEMUR-2-KRISH,2025-135AK,2026-07-05T20:46:46.485120,14.96389203,.00016675,97.7758,301.6157,102.9872,257.1536,0,U,64561,999,5671,.61258745E-3,.6885E-4,0
LEMUR-2-HUBBLE-4,2025-135AP,2026-07-05T23:07:26.941728,14.93667204,.00018403,97.7713,300.6492,189.8038,170.3146,0,U,64565,999,5667,.14524363E-3,.1478E-4,0
LEMUR-2-SEJONG-2,2025-135BL,2026-07-06T06:58:48.427392,14.96869936,.00030722,97.7710,302.1843,258.5570,101.5307,0,U,64586,999,5680,.30934989E-3,.349E-4,0
LEMUR-2-HUBBLE-5,2025-135BT,2026-07-05T20:12:00.057312,14.94193186,.00040895,97.7733,301.1878,276.8419,83.2336,0,U,64840,999,5669,.15085372E-3,.1559E-4,0
LEMUR-2-KARENDARRELL,2025-135BU,2026-07-05T20:38:36.861504,15.00409594,.00114804,97.7697,303.0409,134.6980,225.5180,0,U,64841,999,5681,.69650683E-3,.8711E-4,0
LEMUR-2-LUCILLE-ROSE,2025-135BV,2026-07-05T18:24:18.334368,15.00412220,.00136753,97.7723,302.9819,218.3295,141.6958,0,U,65403,999,5142,.78739039E-3,.9864E-4,0
LEMUR-2-AFFIE-WAUWIE,2025-248C,2026-07-05T19:47:57.109920,15.27976863,.00083636,45.3926,13.9564,202.7682,157.2838,0,U,66295,999,3744,.82701902E-3,.22785E-3,0
LEMUR-2-DEANANDMAEVE,2025-276N,2026-07-06T03:27:54.885600,15.19983006,.00042461,97.4199,260.3076,297.3184,62.7619,0,U,66678,999,3329,.35109511E-3,.7494E-4,0
LEMUR-2-STAS-GORBUK,2025-276W,2026-07-06T03:55:24.463776,15.19595995,.00035149,97.4233,260.3793,294.6730,65.4139,0,U,66686,999,3329,.30714912E-3,.6473E-4,0
LEMUR-2-TEODOR,2025-276DG,2026-07-06T04:36:46.340928,15.21272381,.00023567,97.4139,260.6680,97.3596,262.7907,0,U,66768,999,3333,.26697252E-3,.5899E-4,0
LEMUR-2-LAILA,2025-276DQ,2026-07-06T03:55:12.377280,15.21496473,.00028443,97.4163,260.7722,107.6963,252.4583,0,U,66776,999,3333,.29452458E-3,.6559E-4,0
LEMUR-2-CELIJO-SB-PK,2025-276DW,2026-07-06T04:20:19.156992,15.00221504,.00075045,97.5200,257.3328,86.3830,273.8252,0,U,66781,999,2547,.54133268E-3,.672E-4,0
